start=new Date('2023-07-04T00:00:00.000Z').valueOf();
sats=[{"MEAN_ANOMALY":"80.2546","MEAN_MOTION_DDOT":"0.0000000000000","MEAN_MOTION":"15.49281712","ELEMENT_SET_NO":"999","SEMIMAJOR_AXIS":"6796.963","COUNTRY_CODE":"US","OBJECT_TYPE":"PAYLOAD","LAUNCH_DATE":"2023-05-14","PERIAPSIS":"417.881","CENTER_NAME":"EARTH","MEAN_MOTION_DOT":"-0.00516024","EPOCH":"2023-07-02T04:00:00.999936","TLE_LINE1":"1 56504U 23065B   23183.16667824 -.00516024  00000-0 -98275-2 0  9996","REV_AT_EPOCH":"812","RCS_SIZE":"LARGE","FILE":"3947372","ARG_OF_PERICENTER":"268.6388","PERIOD":"92.946","TIME_SYSTEM":"UTC","SITE":"AFETR","ECCENTRICITY":"0.00013930","GP_ID":"234664996","REF_FRAME":"TEME","OBJECT_NAME":"STARLINK-5716","DECAY_DATE":null,"INCLINATION":"42.9970","NORAD_CAT_ID":"56504","MEAN_ELEMENT_THEORY":"SGP4","CLASSIFICATION_TYPE":"U","OBJECT_ID":"2023-065B","TLE_LINE2":"2 56504  42.9970 150.0664 0001393 268.6388  80.2546 15.49281712  8128","EPHEMERIS_TYPE":"0","BSTAR":"-0.00982750000000","APOAPSIS":"419.775","RA_OF_ASC_NODE":"150.0664"},{"TLE_LINE1":"1 56505U 23065C   23183.16667824 -.00527413  00000-0 -10056-1 0  9991","RCS_SIZE":"LARGE","REV_AT_EPOCH":"812","FILE":"3947372","SITE":"AFETR","PERIOD":"92.946","ARG_OF_PERICENTER":"264.4685","TIME_SYSTEM":"UTC","ECCENTRICITY":"0.00013770","GP_ID":"234665493","REF_FRAME":"TEME","MEAN_ANOMALY":"85.2629","MEAN_MOTION_DDOT":"0.0000000000000","MEAN_MOTION":"15.49290371","SEMIMAJOR_AXIS":"6796.938","ELEMENT_SET_NO":"999","COUNTRY_CODE":"US","OBJECT_TYPE":"PAYLOAD","CENTER_NAME":"EARTH","MEAN_MOTION_DOT":"-0.00527413","PERIAPSIS":"417.867","LAUNCH_DATE":"2023-05-14","EPOCH":"2023-07-02T04:00:00.999936","OBJECT_ID":"2023-065C","CLASSIFICATION_TYPE":"U","EPHEMERIS_TYPE":"0","TLE_LINE2":"2 56505  42.9970 150.0646 0001377 264.4685  85.2629 15.49290371  8123","BSTAR":"-0.01005600000000","APOAPSIS":"419.739","RA_OF_ASC_NODE":"150.0646","OBJECT_NAME":"STARLINK-5763","DECAY_DATE":null,"INCLINATION":"42.9970","NORAD_CAT_ID":"56505","MEAN_ELEMENT_THEORY":"SGP4"},{"MEAN_MOTION_DDOT":"0.0000000000000","MEAN_ANOMALY":"117.3466","SEMIMAJOR_AXIS":"6733.151","ELEMENT_SET_NO":"999","MEAN_MOTION":"15.71358362","OBJECT_TYPE":"PAYLOAD","COUNTRY_CODE":"US","EPOCH":"2023-07-03T08:40:21.745920","PERIAPSIS":"354.164","LAUNCH_DATE":"2023-05-14","CENTER_NAME":"EARTH","MEAN_MOTION_DOT":"0.00002322","TLE_LINE1":"1 56506U 23065D   23184.36136280  .00002322  00000-0  21143-4 0  9999","REV_AT_EPOCH":"831","RCS_SIZE":"LARGE","FILE":"3948429","ECCENTRICITY":"0.00012650","ARG_OF_PERICENTER":"242.7273","PERIOD":"91.640","TIME_SYSTEM":"UTC","SITE":"AFETR","REF_FRAME":"TEME","GP_ID":"234691425","DECAY_DATE":null,"OBJECT_NAME":"STARLINK-5340","MEAN_ELEMENT_THEORY":"SGP4","NORAD_CAT_ID":"56506","INCLINATION":"43.0009","TLE_LINE2":"2 56506  43.0009 141.7608 0001265 242.7273 117.3466 15.71358362  8319","EPHEMERIS_TYPE":"0","CLASSIFICATION_TYPE":"U","OBJECT_ID":"2023-065D","BSTAR":"0.00002114300000","RA_OF_ASC_NODE":"141.7608","APOAPSIS":"355.868"},{"INCLINATION":"42.9993","MEAN_ELEMENT_THEORY":"SGP4","NORAD_CAT_ID":"56507","OBJECT_NAME":"STARLINK-5333","DECAY_DATE":null,"BSTAR":"0.00013763000000","APOAPSIS":"356.107","RA_OF_ASC_NODE":"141.7216","OBJECT_ID":"2023-065E","CLASSIFICATION_TYPE":"U","EPHEMERIS_TYPE":"0","TLE_LINE2":"2 56507  42.9993 141.7216 0001649 253.8359 106.2328 15.71364992  8319","COUNTRY_CODE":"US","OBJECT_TYPE":"PAYLOAD","CENTER_NAME":"EARTH","MEAN_MOTION_DOT":"0.00017641","LAUNCH_DATE":"2023-05-14","PERIAPSIS":"353.887","EPOCH":"2023-07-03T08:31:51.782016","MEAN_ANOMALY":"106.2328","MEAN_MOTION_DDOT":"0.0000000000000","MEAN_MOTION":"15.71364992","SEMIMAJOR_AXIS":"6733.132","ELEMENT_SET_NO":"999","SITE":"AFETR","PERIOD":"91.640","ARG_OF_PERICENTER":"253.8359","TIME_SYSTEM":"UTC","ECCENTRICITY":"0.00016490","GP_ID":"234691351","REF_FRAME":"TEME","RCS_SIZE":"LARGE","TLE_LINE1":"1 56507U 23065E   23184.35546044  .00017641  00000-0  13763-3 0  9990","REV_AT_EPOCH":"831","FILE":"3948424"},{"OBJECT_TYPE":"PAYLOAD","COUNTRY_CODE":"US","EPOCH":"2023-07-02T04:00:00.999936","PERIAPSIS":"417.836","LAUNCH_DATE":"2023-05-14","MEAN_MOTION_DOT":"-0.00535753","CENTER_NAME":"EARTH","MEAN_MOTION_DDOT":"0.0000000000000","MEAN_ANOMALY":"88.4613","SEMIMAJOR_AXIS":"6796.914","ELEMENT_SET_NO":"999","MEAN_MOTION":"15.49298432","ECCENTRICITY":"0.00013870","TIME_SYSTEM":"UTC","PERIOD":"92.945","ARG_OF_PERICENTER":"262.1071","SITE":"AFETR","REF_FRAME":"TEME","GP_ID":"234665400","TLE_LINE1":"1 56508U 23065F   23183.16667824 -.00535753  00000-0 -10223-1 0  9996","RCS_SIZE":"LARGE","REV_AT_EPOCH":"812","FILE":"3947421","NORAD_CAT_ID":"56508","MEAN_ELEMENT_THEORY":"SGP4","INCLINATION":"42.9971","OBJECT_NAME":"STARLINK-5335","DECAY_DATE":null,"BSTAR":"-0.01022300000000","RA_OF_ASC_NODE":"150.0622","APOAPSIS":"419.722","TLE_LINE2":"2 56508  42.9971 150.0622 0001387 262.1071  88.4613 15.49298432  8120","EPHEMERIS_TYPE":"0","OBJECT_ID":"2023-065F","CLASSIFICATION_TYPE":"U"},{"RCS_SIZE":"LARGE","TLE_LINE1":"1 56509U 23065G   23183.16667824 -.00529100  00000-0 -10088-1 0  9995","REV_AT_EPOCH":"812","FILE":"3947421","ECCENTRICITY":"0.00011430","PERIOD":"92.945","ARG_OF_PERICENTER":"262.5559","TIME_SYSTEM":"UTC","SITE":"AFETR","REF_FRAME":"TEME","GP_ID":"234665399","MEAN_MOTION_DDOT":"0.0000000000000","MEAN_ANOMALY":"90.5374","SEMIMAJOR_AXIS":"6796.915","ELEMENT_SET_NO":"999","MEAN_MOTION":"15.49298288","OBJECT_TYPE":"PAYLOAD","COUNTRY_CODE":"US","EPOCH":"2023-07-02T04:00:00.999936","LAUNCH_DATE":"2023-05-14","PERIAPSIS":"418.003","MEAN_MOTION_DOT":"-0.00529100","CENTER_NAME":"EARTH","TLE_LINE2":"2 56509  42.9970 150.0564 0001143 262.5559  90.5374 15.49298288  8127","EPHEMERIS_TYPE":"0","CLASSIFICATION_TYPE":"U","OBJECT_ID":"2023-065G","BSTAR":"-0.01008800000000","RA_OF_ASC_NODE":"150.0564","APOAPSIS":"419.556","OBJECT_NAME":"STARLINK-5334","DECAY_DATE":null,"MEAN_ELEMENT_THEORY":"SGP4","NORAD_CAT_ID":"56509","INCLINATION":"42.9970"},{"BSTAR":"-0.00999850000000","APOAPSIS":"419.740","RA_OF_ASC_NODE":"150.0601","OBJECT_ID":"2023-065H","CLASSIFICATION_TYPE":"U","EPHEMERIS_TYPE":"0","TLE_LINE2":"2 56510  42.9970 150.0601 0001365 267.4097  84.0101 15.49287187  8120","INCLINATION":"42.9970","NORAD_CAT_ID":"56510","MEAN_ELEMENT_THEORY":"SGP4","OBJECT_NAME":"STARLINK-5339","DECAY_DATE":null,"SITE":"AFETR","PERIOD":"92.946","ARG_OF_PERICENTER":"267.4097","TIME_SYSTEM":"UTC","ECCENTRICITY":"0.00013650","GP_ID":"234665501","REF_FRAME":"TEME","RCS_SIZE":"LARGE","TLE_LINE1":"1 56510U 23065H   23183.16667824 -.00524530  00000-0 -99985-2 0  9993","REV_AT_EPOCH":"812","FILE":"3947372","COUNTRY_CODE":"US","OBJECT_TYPE":"PAYLOAD","CENTER_NAME":"EARTH","MEAN_MOTION_DOT":"-0.00524530","LAUNCH_DATE":"2023-05-14","PERIAPSIS":"417.884","EPOCH":"2023-07-02T04:00:00.999936","MEAN_ANOMALY":"84.0101","MEAN_MOTION_DDOT":"0.0000000000000","MEAN_MOTION":"15.49287187","SEMIMAJOR_AXIS":"6796.947","ELEMENT_SET_NO":"999"},{"ELEMENT_SET_NO":"999","SEMIMAJOR_AXIS":"6796.944","MEAN_MOTION":"15.49288115","MEAN_MOTION_DDOT":"0.0000000000000","MEAN_ANOMALY":"90.7398","EPOCH":"2023-07-02T04:00:00.999936","MEAN_MOTION_DOT":"-0.00518234","CENTER_NAME":"EARTH","LAUNCH_DATE":"2023-05-14","PERIAPSIS":"418.019","OBJECT_TYPE":"PAYLOAD","COUNTRY_CODE":"US","FILE":"3947421","TLE_LINE1":"1 56511U 23065J   23183.16667824 -.00518234  00000-0 -98706-2 0  9998","REV_AT_EPOCH":"812","RCS_SIZE":"LARGE","REF_FRAME":"TEME","GP_ID":"234664894","ECCENTRICITY":"0.00011630","SITE":"AFETR","PERIOD":"92.946","ARG_OF_PERICENTER":"263.2046","TIME_SYSTEM":"UTC","OBJECT_NAME":"STARLINK-5351","DECAY_DATE":null,"MEAN_ELEMENT_THEORY":"SGP4","NORAD_CAT_ID":"56511","INCLINATION":"42.9970","EPHEMERIS_TYPE":"0","TLE_LINE2":"2 56511  42.9970 150.0543 0001163 263.2046  90.7398 15.49288115  8124","CLASSIFICATION_TYPE":"U","OBJECT_ID":"2023-065J","RA_OF_ASC_NODE":"150.0543","APOAPSIS":"419.600","BSTAR":"-0.00987060000000"},{"COUNTRY_CODE":"US","OBJECT_TYPE":"PAYLOAD","CENTER_NAME":"EARTH","MEAN_MOTION_DOT":"-0.00523390","PERIAPSIS":"418.006","LAUNCH_DATE":"2023-05-14","EPOCH":"2023-07-02T04:00:00.999936","MEAN_ANOMALY":"82.8373","MEAN_MOTION_DDOT":"0.0000000000000","MEAN_MOTION":"15.49292623","SEMIMAJOR_AXIS":"6796.931","ELEMENT_SET_NO":"999","SITE":"AFETR","PERIOD":"92.946","TIME_SYSTEM":"UTC","ARG_OF_PERICENTER":"269.4179","ECCENTRICITY":"0.00011620","GP_ID":"234663364","REF_FRAME":"TEME","TLE_LINE1":"1 56512U 23065K   23183.16667824 -.00523390  00000-0 -99738-2 0  9994","REV_AT_EPOCH":"812","RCS_SIZE":"MEDIUM","FILE":"3947301","INCLINATION":"42.9970","MEAN_ELEMENT_THEORY":"SGP4","NORAD_CAT_ID":"56512","OBJECT_NAME":"STARLINK-5349","DECAY_DATE":null,"BSTAR":"-0.00997380000000","APOAPSIS":"419.586","RA_OF_ASC_NODE":"150.0583","OBJECT_ID":"2023-065K","CLASSIFICATION_TYPE":"U","EPHEMERIS_TYPE":"0","TLE_LINE2":"2 56512  42.9970 150.0583 0001162 269.4179  82.8373 15.49292623  8127"},{"RA_OF_ASC_NODE":"150.0501","APOAPSIS":"419.537","BSTAR":"-0.01016600000000","TLE_LINE2":"2 56513  42.9970 150.0501 0001131 266.9804  88.6387 15.49302185  8125","EPHEMERIS_TYPE":"0","CLASSIFICATION_TYPE":"U","OBJECT_ID":"2023-065L","NORAD_CAT_ID":"56513","MEAN_ELEMENT_THEORY":"SGP4","INCLINATION":"42.9970","OBJECT_NAME":"STARLINK-5329","DECAY_DATE":null,"REF_FRAME":"TEME","GP_ID":"234663361","ECCENTRICITY":"0.00011310","PERIOD":"92.945","TIME_SYSTEM":"UTC","ARG_OF_PERICENTER":"266.9804","SITE":"AFETR","FILE":"3947301","TLE_LINE1":"1 56513U 23065L   23183.16667824 -.00532997  00000-0 -10166-1 0  9995","REV_AT_EPOCH":"812","RCS_SIZE":"LARGE","EPOCH":"2023-07-02T04:00:00.999936","PERIAPSIS":"417.999","LAUNCH_DATE":"2023-05-14","CENTER_NAME":"EARTH","MEAN_MOTION_DOT":"-0.00532997","OBJECT_TYPE":"PAYLOAD","COUNTRY_CODE":"US","ELEMENT_SET_NO":"999","SEMIMAJOR_AXIS":"6796.903","MEAN_MOTION":"15.49302185","MEAN_MOTION_DDOT":"0.0000000000000","MEAN_ANOMALY":"88.6387"}];
